[Satellite]
VERSION=1.1
NAME=IDEFIX & ARIANE 42P R/B
NICKNAME=IDEFIX & ARIANE 42P R/B
TLE1=1 27422U 02021B   18018.99027574 -.00000046  00000-0 -22472-5 0  9997
TLE2=2 27422  98.2435  12.4663 0011633 321.7786  38.2571 14.29260086819394
